NORAD_CAT_ID,OBJECT_NAME,OBJECT_TYPE,EPOCH,MEAN_MOTION,ECCENTRICITY,INCLINATION,RA_OF_ASC_NODE,ARG_OF_PERICENTER,MEAN_ANOMALY,BSTAR,MEAN_MOTION_DOT,MEAN_MOTION_DDOT,TLE_LINE0,TLE_LINE1,TLE_LINE2,SEMIMAJOR_AXIS,PERIOD,APOGEE,PERIGEE,DECAYED
52546.0,STARLINK-3948,PAYLOAD,2023-01-25 19:24:30,15.08844761,0.0001740999999999,53.2141,201.7598,71.47,288.6481,3.7906e-05,3.15e-06,0.0,0 STARLINK-3948,1 52546U 22051P   23025.80869057  .00000315  00000-0  37906-4 0  9995,2 52546  53.2141 201.7598 0001741  71.4700 288.6481 15.08844761 39580,6917.866,95.437,540.935,538.526,0.0
52546.0,STARLINK-3948,PAYLOAD,2023-01-25 20:59:53,15.08846781,0.0001757,53.2141,201.4621,72.2895,287.8289,5.1463000000000005e-05,5.31e-06,0.0,0 STARLINK-3948,1 52546U 22051P   23025.87492882  .00000531  00000-0  51463-4 0  9994,2 52546  53.2141 201.4621 0001757  72.2895 287.8289 15.08846781 39520,6917.86,95.437,540.94,538.509,0.0
52546.0,STARLINK-3948,PAYLOAD,2023-01-27 14:19:55,15.08833815,0.0001338,53.214,193.7308,85.12799999999999,274.9865,0.00011308,1.512e-05,0.0,0 STARLINK-3948,1 52546U 22051P   23027.59717269  .00001512  00000-0  11308-3 0  9997,2 52546  53.2140 193.7308 0001338  85.1280 274.9865 15.08833815 39857,6917.899,95.438,540.69,538.839,0.0
52546.0,STARLINK-3948,PAYLOAD,2023-01-27 17:30:41,15.08842153,0.0001171,53.214,193.1356,97.405,262.7075,-1.4637e-05,-5.21e-06,0.0,0 STARLINK-3948,1 52546U 22051P   23027.72964989 -.00000521  00000-0 -14637-4 0  9995,2 52546  53.2140 193.1356 0001171  97.4050 262.7075 15.08842153 39808,6917.874,95.437,540.549,538.929,0.0
52546.0,STARLINK-3948,PAYLOAD,2023-01-28 14:10:42,15.08836854,0.0001236,53.2138,189.2698,95.3468,264.7665,1.9728e-05,2.6e-07,0.0,0 STARLINK-3948,1 52546U 22051P   23028.59077267  .00000026  00000-0  19728-4 0  9999,2 52546  53.2138 189.2698 0001236  95.3468 264.7665 15.08836854 39934,6917.89,95.438,540.61,538.9,0.0
52546.0,STARLINK-3948,PAYLOAD,2023-01-28 20:32:15,15.08838103,0.0001238,53.2139,188.0803,91.8056,268.3078,2.6832e-05,1.39e-06,0.0,0 STARLINK-3948,1 52546U 22051P   23028.85573194  .00000139  00000-0  26832-4 0  9997,2 52546  53.2139 188.0803 0001238  91.8056 268.3078 15.08838103 40047,6917.886,95.438,540.608,538.895,0.0
52546.0,STARLINK-3948,PAYLOAD,2023-01-29 15:36:53,15.08835296,0.0001213,53.2141,184.5118,93.856,266.2571,3.9398e-05,3.39e-06,0.0,0 STARLINK-3948,1 52546U 22051P   23029.65061497  .00000339  00000-0  39398-4 0  9997,2 52546  53.2141 184.5118 0001213  93.8560 266.2571 15.08835296 40095,6917.895,95.438,540.599,538.921,0.0
52546.0,STARLINK-3948,PAYLOAD,2023-01-30 02:44:35,15.08834561,0.0001204,53.2144,182.4304,91.2642,268.8488,4.8956e-05,4.91e-06,0.0,0 STARLINK-3948,1 52546U 22051P   23030.11429635  .00000491  00000-0  48956-4 0  9991,2 52546  53.2144 182.4304 0001204  91.2642 268.8488 15.08834561 40230,6917.897,95.438,540.595,538.929,0.0
52546.0,STARLINK-3948,PAYLOAD,2023-01-30 10:41:31,15.08832566,0.0001252,53.2144,180.9433,95.4742,264.6392,1.3542e-07,-2.86e-06,0.0,0 STARLINK-3948,1 52546U 22051P   23030.44550047 -.00000286  00000-0  13542-6 0  9997,2 52546  53.2144 180.9433 0001252  95.4742 264.6392 15.08832566 40215,6917.903,95.438,540.634,538.902,0.0
52546.0,STARLINK-3948,PAYLOAD,2023-01-30 20:13:50,15.08834265,0.0001264,53.2146,179.1591,95.9206,264.193,1.2469e-05,-8.9e-07,0.0,0 STARLINK-3948,1 52546U 22051P   23030.84294027 -.00000089  00000-0  12469-4 0  9990,2 52546  53.2146 179.1591 0001264  95.9206 264.1930 15.08834265 40272,6917.898,95.438,540.637,538.888,0.0
52546.0,STARLINK-3948,PAYLOAD,2023-01-31 10:32:18,15.08835881,0.0001228,53.215,176.4834,94.5375,265.5757,2.9323e-05,1.79e-06,0.0,0 STARLINK-3948,1 52546U 22051P   23031.43910036  .00000179  00000-0  29323-4 0  9997,2 52546  53.2150 176.4834 0001228  94.5375 265.5757 15.08835881 40434,6917.893,95.438,540.607,538.908,0.0
52546.0,STARLINK-3948,PAYLOAD,2023-01-31 18:29:13,15.08833451,0.000134,53.2149,174.9966,95.437,264.6775,0.00018616,2.676e-05,0.0,0 STARLINK-3948,1 52546U 22051P   23031.77029767  .00002676  00000-0  18616-3 0  9992,2 52546  53.2149 174.9966 0001340  95.4370 264.6775 15.08833451 40410,6917.9,95.438,540.692,538.838,0.0
52546.0,STARLINK-3948,PAYLOAD,2023-02-01 10:23:05,15.08835255,0.0001169,53.214,172.0225,96.6497,263.4628,4.5043e-05,4.29e-06,0.0,0 STARLINK-3948,1 52546U 22051P   23032.43270057  .00000429  00000-0  45043-4 0  9995,2 52546  53.2140 172.0225 0001169  96.6497 263.4628 15.08835255 40519,6917.895,95.438,540.569,538.951,0.0
52546.0,STARLINK-3948,PAYLOAD,2023-02-02 02:16:56,15.08839417,0.0002469,53.2125,169.0477,86.025,274.1024,4.8811e-05,4.88e-06,0.0,0 STARLINK-3948,1 52546U 22051P   23033.09510268  .00000488  00000-0  48811-4 0  9990,2 52546  53.2125 169.0477 0002469  86.0250 274.1024 15.08839417 40682,6917.882,95.438,541.455,538.039,0.0
52546.0,STARLINK-3948,PAYLOAD,2023-02-02 13:24:38,15.08835908,0.0001193,53.2154,166.9675,85.1563,274.9566,5.285e-05,5.53e-06,0.0,0 STARLINK-3948,1 52546U 22051P   23033.55878091  .00000553  00000-0  52850-4 0  9993,2 52546  53.2154 166.9675 0001193  85.1563 274.9566 15.08835908 40680,6917.893,95.438,540.583,538.933,0.0
52546.0,STARLINK-3948,PAYLOAD,2023-02-03 02:07:43,15.08834873,0.0001268,53.2125,164.5867,90.3289,269.7849,-5.2202e-06,-3.71e-06,0.0,0 STARLINK-3948,1 52546U 22051P   23034.08870306 -.00000371  00000-0 -52202-5 0  9995,2 52546  53.2125 164.5867 0001268  90.3289 269.7849 15.08834873 40834,6917.896,95.438,540.638,538.884,0.0
52546.0,STARLINK-3948,PAYLOAD,2023-02-03 08:29:16,15.08837109,0.0001366,53.2125,163.397,89.6211,270.4938,-4.0064e-05,-9.25e-06,0.0,0 STARLINK-3948,1 52546U 22051P   23034.35366390 -.00000925  00000-0 -40064-4 0  9995,2 52546  53.2125 163.3970 0001366  89.6211 270.4938 15.08837109 40801,6917.889,95.438,540.699,538.809,0.0
52546.0,STARLINK-3948,PAYLOAD,2023-02-03 18:01:36,15.08818213,0.0001377,53.2136,161.6125,93.8777,266.2373,0.0001802,2.579e-05,0.0,0 STARLINK-3948,1 52546U 22051P   23034.75111115  .00002579  00000-0  18020-3 0  9993,2 52546  53.2136 161.6125 0001377  93.8777 266.2373 15.08818213 40937,6917.947,95.439,540.765,538.859,0.0
52546.0,STARLINK-3948,PAYLOAD,2023-02-04 08:20:03,15.08837064,9.45e-05,53.2146,158.9382,80.2126,279.8973,0.0001518,2.129e-05,0.0,0 STARLINK-3948,1 52546U 22051P   23035.34725850  .00002129  00000-0  15180-3 0  9991,2 52546  53.2146 158.9382 0000945  80.2126 279.8973 15.08837064 41022,6917.889,95.438,540.408,539.101,0.0
52546.0,STARLINK-3948,PAYLOAD,2023-02-04 13:06:11,15.08856676,0.0001425,53.2137,158.046,77.0938,283.0213,4.9877e-05,5.06e-06,0.0,0 STARLINK-3948,1 52546U 22051P   23035.54596946  .00000506  00000-0  49877-4 0  9993,2 52546  53.2137 158.0460 0001425  77.0938 283.0213 15.08856676 41056,6917.829,95.436,540.68,538.709,0.0
52546.0,STARLINK-3948,PAYLOAD,2023-02-04 17:52:20,15.08853395,0.000138,53.2137,157.1529,81.0968,279.018,0.00016186,2.29e-05,0.0,0 STARLINK-3948,1 52546U 22051P   23035.74468742  .00002290  00000-0  16186-3 0  9995,2 52546  53.2137 157.1529 0001380  81.0968 279.0180 15.08853395 41019,6917.839,95.437,540.659,538.75,0.0
52546.0,STARLINK-3948,PAYLOAD,2023-02-05 14:32:23,15.08830871,0.0001328,53.2145,153.2897,75.9537,284.1603,2.6987e-05,1.42e-06,0.0,0 STARLINK-3948,1 52546U 22051P   23036.60583011  .00000142  00000-0  26987-4 0  9993,2 52546  53.2145 153.2897 0001328  75.9537 284.1603 15.08830871 41212,6917.908,95.438,540.692,538.855,0.0
52546.0,STARLINK-3948,PAYLOAD,2023-02-05 17:43:09,15.08834808,0.0001233,53.2146,152.694,79.0118,281.1013,6.6896e-05,7.77e-06,0.0,0 STARLINK-3948,1 52546U 22051P   23036.73830784  .00000777  00000-0  66896-4 0  9996,2 52546  53.2146 152.6940 0001233  79.0118 281.1013 15.08834808 41160,6917.896,95.438,540.614,538.908,0.0
52546.0,STARLINK-3948,PAYLOAD,2023-02-06 11:12:23,15.08847628,0.0001262,53.214,149.4225,85.292,274.8216,5.7675e-05,6.3e-06,0.0,0 STARLINK-3948,1 52546U 22051P   23037.46694022  .00000630  00000-0  57675-4 0  9993,2 52546  53.2140 149.4225 0001262  85.2920 274.8216 15.08847628 41344,6917.857,95.437,540.595,538.849,0.0
52546.0,STARLINK-3948,PAYLOAD,2023-02-06 12:47:46,15.08850633,0.0001249,53.2138,149.1252,84.621,275.4924,0.00014679,2.05e-05,0.0,0 STARLINK-3948,1 52546U 22051P   23037.53317869  .00002050  00000-0  14679-3 0  9996,2 52546  53.2138 149.1252 0001249  84.6210 275.4924 15.08850633 41284,6917.848,95.437,540.577,538.849,0.0
52546.0,STARLINK-3948,PAYLOAD,2023-02-06 15:58:32,15.08862295,0.000132,53.2149,148.5302,93.4527,266.6616,0.0004526,6.927e-05,0.0,0 STARLINK-3948,1 52546U 22051P   23037.66565464  .00006927  00000-0  45260-3 0  9993,2 52546  53.2149 148.5302 0001320  93.4527 266.6616 15.08862295 41371,6917.812,95.436,540.59,538.764,0.0
52546.0,STARLINK-3948,PAYLOAD,2023-02-07 06:17:01,15.08848155,0.0001405,53.2151,145.8545,90.2775,269.8379,0.0002602,3.856e-05,0.0,0 STARLINK-3948,1 52546U 22051P   23038.26181996  .00003856  00000-0  26020-3 0  9995,2 52546  53.2151 145.8545 0001405  90.2775 269.8379 15.08848155 41467,6917.855,95.437,540.692,538.749,0.0
52546.0,STARLINK-3948,PAYLOAD,2023-02-07 12:38:33,15.08856205,0.0001443,53.2143,144.6654,97.5129,262.6027,0.00035293,5.336e-05,0.0,0 STARLINK-3948,1 52546U 22051P   23038.52677534  .00005336  00000-0  35293-3 0  9999,2 52546  53.2143 144.6654 0001443  97.5129 262.6027 15.08856205 41434,6917.831,95.437,540.694,538.698,0.0
52546.0,STARLINK-3948,PAYLOAD,2023-02-07 17:24:42,15.08873065,0.0001371,53.216,143.7751,92.5936,267.5213,0.00074289,0.00011566,0.0,0 STARLINK-3948,1 52546U 22051P   23038.72548856  .00011566  00000-0  74289-3 0  9995,2 52546  53.2160 143.7751 0001371  92.5936 267.5213 15.08873065 41537,6917.779,95.435,540.593,538.696,0.0
52546.0,STARLINK-3948,PAYLOAD,2023-02-08 06:07:47,15.08843705,0.0001557,53.2147,141.394,113.737,246.3786,0.00020727,3.013e-05,0.0,0 STARLINK-3948,1 52546U 22051P   23039.25541338  .00003013  00000-0  20727-3 0  9998,2 52546  53.2147 141.3940 0001557 113.7370 246.3786 15.08843705 41617,6917.869,95.437,540.811,538.657,0.0
